[
    {
        "Altitude(m)": 704381.0414932742,
        "Argument of Periapsis(deg)": 0.007973084830638947,
        "Eccentricity": 0.0,
        "Inclination(deg)": 45.0,
        "Latitude(deg)": -5.79775784839321,
        "Longitude(deg)": 170.26377880334744,
        "Mean Anomaly(deg)": 188.07325165323658,
        "RAAN(deg)": 84.99247364097926,
        "Satellite Name": "Constellation 1 385",
        "Satellite Number": 385,
        "Semi-Major Axis(m)": 7083131.272910544,
        "Time(s)": 133
    },
    {
        "Altitude(m)": 704389.3357998579,
        "Argument of Periapsis(deg)": 0.008033032836884352,
        "Eccentricity": 0.0,
        "Inclination(deg)": 45.0,
        "Latitude(deg)": -5.840736235608791,
        "Longitude(deg)": 170.30295913826205,
        "Mean Anomaly(deg)": 188.13395279348646,
        "RAAN(deg)": 84.99241705181369,
        "Satellite Name": "Constellation 1 385",
        "Satellite Number": 385,
        "Semi-Major Axis(m)": 7083131.272910544,
        "Time(s)": 134
    },
    {
        "Altitude(m)": 704397.6490306001,
        "Argument of Periapsis(deg)": 0.008092980843129758,
        "Eccentricity": 0.0,
        "Inclination(deg)": 45.0,
        "Latitude(deg)": -5.883711142717358,
        "Longitude(deg)": 170.34214598594883,
        "Mean Anomaly(deg)": 188.19465393373636,
        "RAAN(deg)": 84.99236046264812,
        "Satellite Name": "Constellation 1 385",
        "Satellite Number": 385,
        "Semi-Major Axis(m)": 7083131.272910544,
        "Time(s)": 135
    },
    {
        "Altitude(m)": 704405.9811666218,
        "Argument of Periapsis(deg)": 0.008152928849375162,
        "Eccentricity": 0.0,
        "Inclination(deg)": 45.0,
        "Latitude(deg)": -5.926682543983471,
        "Longitude(deg)": 170.38133939564116,
        "Mean Anomaly(deg)": 188.25535507398627,
        "RAAN(deg)": 84.99230387348256,
        "Satellite Name": "Constellation 1 385",
        "Satellite Number": 385,
        "Semi-Major Axis(m)": 7083131.272910544,
        "Time(s)": 136
    },
    {
        "Altitude(m)": 704414.3321889752,
        "Argument of Periapsis(deg)": 0.008212876855620568,
        "Eccentricity": 0.0,
        "Inclination(deg)": 45.0,
        "Latitude(deg)": -5.969650413659279,
        "Longitude(deg)": 170.42053941658645,
        "Mean Anomaly(deg)": 188.3160562142362,
        "RAAN(deg)": 84.99224728431697,
        "Satellite Name": "Constellation 1 385",
        "Satellite Number": 385,
        "Semi-Major Axis(m)": 7083131.272910544,
        "Time(s)": 137
    },
    {
        "Altitude(m)": 704422.7020786137,
        "Argument of Periapsis(deg)": 0.008272824861865974,
        "Eccentricity": 0.0,
        "Inclination(deg)": 45.0,
        "Latitude(deg)": -6.01261472598458,
        "Longitude(deg)": 170.45974609804597,
        "Mean Anomaly(deg)": 188.37675735448607,
        "RAAN(deg)": 84.99219069515141,
        "Satellite Name": "Constellation 1 385",
        "Satellite Number": 385,
        "Semi-Major Axis(m)": 7083131.272910544,
        "Time(s)": 138
    },
    {
        "Altitude(m)": 704431.0908164106,
        "Argument of Periapsis(deg)": 0.00833277286811138,
        "Eccentricity": 0.0,
        "Inclination(deg)": 45.0,
        "Latitude(deg)": -6.055575455186969,
        "Longitude(deg)": 170.4989594892954,
        "Mean Anomaly(deg)": 188.437458494736,
        "RAAN(deg)": 84.99213410598585,
        "Satellite Name": "Constellation 1 385",
        "Satellite Number": 385,
        "Semi-Major Axis(m)": 7083131.272910544,
        "Time(s)": 139
    },
    {
        "Altitude(m)": 704439.4983831429,
        "Argument of Periapsis(deg)": 0.008392720874356788,
        "Eccentricity": 0.0,
        "Inclination(deg)": 45.0,
        "Latitude(deg)": -6.098532575481305,
        "Longitude(deg)": 170.53817963962467,
        "Mean Anomaly(deg)": 188.49815963498583,
        "RAAN(deg)": 84.99207751682027,
        "Satellite Name": "Constellation 1 385",
        "Satellite Number": 385,
        "Semi-Major Axis(m)": 7083131.272910544,
        "Time(s)": 140
    },
    {
        "Altitude(m)": 704447.9247595028,
        "Argument of Periapsis(deg)": 0.008452668880602192,
        "Eccentricity": 0.0,
        "Inclination(deg)": 45.0,
        "Latitude(deg)": -6.1414860610698705,
        "Longitude(deg)": 170.5774064302412,
        "Mean Anomaly(deg)": 188.55886077523576,
        "RAAN(deg)": 84.9920209276547,
        "Satellite Name": "Constellation 1 385",
        "Satellite Number": 385,
        "Semi-Major Axis(m)": 7083131.272910544,
        "Time(s)": 141
    },
    {
        "Altitude(m)": 704456.3699260941,
        "Argument of Periapsis(deg)": 0.008512616886847598,
        "Eccentricity": 0.0,
        "Inclination(deg)": 45.0,
        "Latitude(deg)": -6.184435886142921,
        "Longitude(deg)": 170.61664024665785,
        "Mean Anomaly(deg)": 188.61956191548566,
        "RAAN(deg)": 84.99196433848913,
        "Satellite Name": "Constellation 1 385",
        "Satellite Number": 385,
        "Semi-Major Axis(m)": 7083131.272910544,
        "Time(s)": 142
    },
    {
        "Altitude(m)": 704464.833863434,
        "Argument of Periapsis(deg)": 0.008572564893093004,
        "Eccentricity": 0.0,
        "Inclination(deg)": 45.0,
        "Latitude(deg)": -6.227382024877108,
        "Longitude(deg)": 170.65588097011107,
        "Mean Anomaly(deg)": 188.6802630557356,
        "RAAN(deg)": 84.99190774932357,
        "Satellite Name": "Constellation 1 385",
        "Satellite Number": 385,
        "Semi-Major Axis(m)": 7083131.272910544,
        "Time(s)": 143
    },
    {
        "Altitude(m)": 704473.3165519458,
        "Argument of Periapsis(deg)": 0.008632512899338408,
        "Eccentricity": 0.0,
        "Inclination(deg)": 45.0,
        "Latitude(deg)": -6.270324451436444,
        "Longitude(deg)": 170.69512864994888,
        "Mean Anomaly(deg)": 188.74096419598544,
        "RAAN(deg)": 84.99185116015799,
        "Satellite Name": "Constellation 1 385",
        "Satellite Number": 385,
        "Semi-Major Axis(m)": 7083131.272910544,
        "Time(s)": 144
    },
    {
        "Altitude(m)": 704481.8179719773,
        "Argument of Periapsis(deg)": 0.008692460905583814,
        "Eccentricity": 0.0,
        "Inclination(deg)": 45.0,
        "Latitude(deg)": -6.313263139972248,
        "Longitude(deg)": 170.73438333553446,
        "Mean Anomaly(deg)": 188.80166533623537,
        "RAAN(deg)": 84.99179457099243,
        "Satellite Name": "Constellation 1 385",
        "Satellite Number": 385,
        "Semi-Major Axis(m)": 7083131.272910544,
        "Time(s)": 145
    },
    {
        "Altitude(m)": 704490.3381037746,
        "Argument of Periapsis(deg)": 0.00875240891182922,
        "Eccentricity": 0.0,
        "Inclination(deg)": 45.0,
        "Latitude(deg)": -6.3561980646224,
        "Longitude(deg)": 170.77364507624554,
        "Mean Anomaly(deg)": 188.8623664764853,
        "RAAN(deg)": 84.99173798182686,
        "Satellite Name": "Constellation 1 385",
        "Satellite Number": 385,
        "Semi-Major Axis(m)": 7083131.272910544,
        "Time(s)": 146
    },
    {
        "Altitude(m)": 704498.8769275043,
        "Argument of Periapsis(deg)": 0.008812356918074627,
        "Eccentricity": 0.0,
        "Inclination(deg)": 45.0,
        "Latitude(deg)": -6.399129199511922,
        "Longitude(deg)": 170.81291392147497,
        "Mean Anomaly(deg)": 188.92306761673515,
        "RAAN(deg)": 84.99168139266129,
        "Satellite Name": "Constellation 1 385",
        "Satellite Number": 385,
        "Semi-Major Axis(m)": 7083131.272910544,
        "Time(s)": 147
    },
    {
        "Altitude(m)": 704507.4344232493,
        "Argument of Periapsis(deg)": 0.008872304924320031,
        "Eccentricity": 0.0,
        "Inclination(deg)": 45.0,
        "Latitude(deg)": -6.442056518752181,
        "Longitude(deg)": 170.8521897525337,
        "Mean Anomaly(deg)": 188.98376875698509,
        "RAAN(deg)": 84.99162480349572,
        "Satellite Name": "Constellation 1 385",
        "Satellite Number": 385,
        "Semi-Major Axis(m)": 7083131.272910544,
        "Time(s)": 148
    },
    {
        "Altitude(m)": 704516.0105709876,
        "Argument of Periapsis(deg)": 0.008932252930565437,
        "Eccentricity": 0.0,
        "Inclination(deg)": 45.0,
        "Latitude(deg)": -6.484979996442032,
        "Longitude(deg)": 170.8914729550389,
        "Mean Anomaly(deg)": 189.0444698972349,
        "RAAN(deg)": 84.99156821433014,
        "Satellite Name": "Constellation 1 385",
        "Satellite Number": 385,
        "Semi-Major Axis(m)": 7083131.272910544,
        "Time(s)": 149
    },
    {
        "Altitude(m)": 704524.6053506315,
        "Argument of Periapsis(deg)": 0.008992200936810843,
        "Eccentricity": 0.0,
        "Inclination(deg)": 45.0,
        "Latitude(deg)": -6.5278996066661215,
        "Longitude(deg)": 170.93076341033196,
        "Mean Anomaly(deg)": 189.10517103748487,
        "RAAN(deg)": 84.99151162516458,
        "Satellite Name": "Constellation 1 385",
        "Satellite Number": 385,
        "Semi-Major Axis(m)": 7083131.272910544,
        "Time(s)": 150
    },
    {
        "Altitude(m)": 704533.2187419864,
        "Argument of Periapsis(deg)": 0.009052148943056249,
        "Eccentricity": 0.0,
        "Inclination(deg)": 45.0,
        "Latitude(deg)": -6.570815323495771,
        "Longitude(deg)": 170.97006116786676,
        "Mean Anomaly(deg)": 189.1658721777347,
        "RAAN(deg)": 84.99145503599902,
        "Satellite Name": "Constellation 1 385",
        "Satellite Number": 385,
        "Semi-Major Axis(m)": 7083131.272910544,
        "Time(s)": 151
    }
]